GLOBALSTAR M094         
1 39074U 13005C   24247.21383163 -.00000071  00000+0  18256-3 0  9991
2 39074  51.9985 335.8681 0000545  77.3927 282.7001 12.62267426536153
GLOBALSTAR M096         
1 39075U 13005D   24247.30625011 -.00000091  00000+0  70447-4 0  9996
2 39075  52.0096  23.8747 0000681  66.2104 293.8834 12.62269306535415
GLOBALSTAR M078         
1 39076U 13005E   24247.04215582 -.00000190  00000+0 -47880-3 0  9991
2 39076  51.9866 109.5790 0000324 286.4112  73.6719 12.62273947533867
GLOBALSTAR M095         
1 39077U 13005F   24246.98944828 -.00000058  00000+0  25456-3 0  9993
2 39077  51.9789 107.0799 0000607  16.3851 343.7035 12.62264218533861
GLOBALSTAR M087         
1 52888U 22064A   24247.11915849 -.00000050  00000+0  14960-3 0  9990
2 52888  51.9758 296.6366 0009338 199.4129 160.6417 13.37584061107959
